STARLINK-37618          
1 69228U 26115T   26160.37027272 -.00305812  00000+0 -16708-2 0  9991
2 69228  97.2833 177.4386 0001221  99.1067 261.0339 15.80573547  3456
STARLINK-37679          
1 69229U 26115U   26160.37172868  .00224238  00000+0  11381-2 0  9996
2 69229  97.2832 177.4361 0001781  83.1213 277.0258 15.80882633  3452
STARLINK-37746          
1 69230U 26115V   26160.37327356  .00233715  00000+0  11863-2 0  9997
2 69230  97.2829 177.4335 0003941  49.5536 310.6075 15.80851455  3454
STARLINK-37557          
1 69231U 26115W   26159.80053962  .00747196  00000+0  35783-2 0  9993
2 69231  97.2839 176.8365 0001242 118.7157 241.4236 15.80809550  3361
STARLINK-37745          
1 69232U 26115X   26160.42933397  .00108782  00000+0  56094-3 0  9994
2 69232  97.2836 177.5114 0001441  78.8449 281.2981 15.80841798  3460
STARLINK-37739          
1 69233U 26115Y   26160.50003471 -.02507060  00000+0 -18037-1 0  9994
2 69233  97.2838 177.5703 0001385 100.2937 266.9090 15.77140949  3452
STARLINK-37755          
1 69234U 26115Z   26160.50003471  .00002572  00000+0  18107-4 0  9990
2 69234  97.2845 177.5480 0001396  92.1952 219.8222 15.75193785  3459
TJS-24                  
1 69235U 26116A   26160.50229904 -.00000214  00000+0  00000+0 0  9993
2 69235   0.0258 246.0216 0000658 173.3460 109.6443  1.00270672   154
STARLINK-37665          
1 69238U 26117A   26160.50003471 -.00051720  00000+0 -24634-3 0  9998
2 69238  53.1593 282.2111 0000719  65.6624  77.5851 15.82036731  2932
STARLINK-37558          
1 69239U 26117B   26160.50003471 -.00047879  00000+0 -22768-3 0  9995
2 69239  53.1592 282.1999 0000938  72.5986  76.0653 15.82036878  2932
STARLINK-37680          
1 69240U 26117C   26160.50003471 -.00050303  00000+0 -23942-3 0  9998
2 69240  53.1596 282.1825 0001056  73.0812  83.7852 15.82038677  2926
STARLINK-37742          
1 69241U 26117D   26160.50003471 -.00020979  00000+0 -97624-4 0  9994
2 69241  53.1596 282.1619 0000773  73.7772  93.2721 15.82016259  2939
STARLINK-37718          
1 69242U 26117E   26160.50003471 -.00080571  00000+0 -38696-3 0  9992
2 69242  53.1597 282.1469 0001054  82.1441  91.9384 15.82035100  2929
STARLINK-37735          
1 69243U 26117F   26160.50003471 -.00032895  00000+0 -15520-3 0  9990
2 69243  53.1596 282.1454 0001163  89.2618  85.4240 15.82020447  2936
STARLINK-37757          
1 69244U 26117G   26160.50003471 -.00036863  00000+0 -17446-3 0  9999
2 69244  53.1594 282.1176 0000653 103.1156  85.2237 15.82016360  2935
STARLINK-37767          
1 69245U 26117H   26160.50003471 -.00027578  00000+0 -12951-3 0  9999
2 69245  53.1614 282.0667 0000992  93.1412 119.4870 15.82015930  2937
STARLINK-35759          
1 69246U 26117J   26160.50003471 -.00025590  00000+0 -11987-3 0  9990
2 69246  53.1590 282.0589 0000755  99.9595 116.5825 15.82021686  2985
STARLINK-37238          
1 69247U 26117K   26160.50003471  .00060148  00000+0  29096-3 0  9997
2 69247  53.1586 282.0057 0001139  84.1119 157.7470 15.81975520  2938
STARLINK-37412          
1 69248U 26117L   26160.50003471 -.00023301  00000+0 -10895-3 0  9997
2 69248  53.1581 281.9662 0001184  84.0858 176.9876 15.81993601  3005
STARLINK-37398          
1 69249U 26117M   26160.50003471 -.01698272  00000+0 -88473-2 0  9990
2 69249  53.1576 281.9585 0000584  73.9110 190.7460 15.83324878  3004
STARLINK-37499          
1 69250U 26117N   26160.50003471  .00006189  00000+0  33192-4 0  9999
2 69250  53.1581 281.9454 0001111  75.5140 195.3576 15.81979765  3003
STARLINK-37489          
1 69251U 26117P   26160.50003471  .00018719  00000+0  93334-4 0  9996
2 69251  53.1581 281.9247 0000461 122.6904 158.2103 15.81975720  3004
STARLINK-37434          
1 69252U 26117Q   26160.50003471 -.00734730  00000+0 -37510-2 0  9999
2 69252  53.1575 281.8900 0001285  77.7211 219.8458 15.82487302  2932
STARLINK-37368          
1 69253U 26117R   26160.50003471 -.01846097  00000+0 -89210-2 0  9995
2 69253  53.1564 281.8161 0000733  64.1170 269.1453 15.84634436  3007
STARLINK-37517          
1 69254U 26117S   26160.50003471 -.02018622  00000+0 -97344-2 0  9999
2 69254  53.1566 281.8019 0000521  83.8451 256.3389 15.84957117  3007
STARLINK-37378          
1 69255U 26117T   26160.50003471 -.01884880  00000+0 -91348-2 0  9994
2 69255  53.1566 281.7964 0000579  64.8006 277.9065 15.84638140  2926
STARLINK-37396          
1 69256U 26117U   26160.50003471 -.02079717  00000+0 -10020-1 0  9998
2 69256  53.1564 281.7681 0000776  75.1518 280.7231 15.85072869  3001
STARLINK-37508          
1 69257U 26117V   26160.50003471 -.00750173  00000+0 -34065-2 0  9995
2 69257  53.1559 281.7492 0001005  83.8357 280.9698 15.84974437  2929
STARLINK-37276          
1 69258U 26117W   26160.50003471 -.02149296  12575-2 -60694-2 0  9996
2 69258  53.1552 281.5661 0001083  56.4876  36.0486 15.92952645  2928
