OBJECT_NAME,OBJECT_ID,EPOCH,MEAN_MOTION,ECCENTRICITY,INCLINATION,RA_OF_ASC_NODE,ARG_OF_PERICENTER,MEAN_ANOMALY,EPHEMERIS_TYPE,CLASSIFICATION_TYPE,NORAD_CAT_ID,ELEMENT_SET_NO,REV_AT_EPOCH,BSTAR,MEAN_MOTION_DOT,MEAN_MOTION_DDOT
STARLINK-37618,2026-115T,2026-06-09T08:53:11.563008,15.80573547,.0001221,97.2833,177.4386,99.1067,261.0339,0,U,69228,999,345,-.16708E-2,-.305812E-2,0
STARLINK-37679,2026-115U,2026-06-09T08:55:17.357952,15.80882633,.0001781,97.2832,177.4361,83.1213,277.0258,0,U,69229,999,345,.11381E-2,.224238E-2,0
STARLINK-37746,2026-115V,2026-06-09T08:57:30.835584,15.80851455,.0003941,97.2829,177.4335,49.5536,310.6075,0,U,69230,999,345,.11863E-2,.233715E-2,0
STARLINK-37557,2026-115W,2026-06-08T19:12:46.623168,15.80809550,.00012421,97.2839,176.8365,118.7157,241.4236,0,U,69231,999,336,.35782992E-2,.747196E-2,0
STARLINK-37745,2026-115X,2026-06-09T10:18:14.455008,15.80841798,.0001441,97.2836,177.5114,78.8449,281.2981,0,U,69232,999,346,.56094E-3,.108782E-2,0
STARLINK-37739,2026-115Y,2026-06-09T12:00:02.998944,15.77140949,.0001385,97.2838,177.5703,100.2937,266.9090,0,U,69233,999,345,-.18037E-1,-.250706E-1,0
STARLINK-37755,2026-115Z,2026-06-09T12:00:02.998944,15.75193785,.0001396,97.2845,177.5480,92.1952,219.8222,0,U,69234,999,345,.18107E-4,.2572E-4,0
TJS-24,2026-116A,2026-06-09T12:03:18.637056,1.00270672,.0000658,0.0258,246.0216,173.3460,109.6443,0,U,69235,999,15,0,-.214E-5,0
STARLINK-37665,2026-117A,2026-06-09T12:00:02.998944,15.82036731,.0000719,53.1593,282.2111,65.6624,77.5851,0,U,69238,999,293,-.24634E-3,-.5172E-3,0
STARLINK-37558,2026-117B,2026-06-09T12:00:02.998944,15.82036878,.0000938,53.1592,282.1999,72.5986,76.0653,0,U,69239,999,293,-.22768E-3,-.47879E-3,0
STARLINK-37680,2026-117C,2026-06-09T12:00:02.998944,15.82038677,.0001056,53.1596,282.1825,73.0812,83.7852,0,U,69240,999,292,-.23942E-3,-.50303E-3,0
STARLINK-37742,2026-117D,2026-06-09T12:00:02.998944,15.82016259,.0000773,53.1596,282.1619,73.7772,93.2721,0,U,69241,999,293,-.97624E-4,-.20979E-3,0
STARLINK-37718,2026-117E,2026-06-09T12:00:02.998944,15.82035100,.0001054,53.1597,282.1469,82.1441,91.9384,0,U,69242,999,292,-.38696E-3,-.80571E-3,0
STARLINK-37735,2026-117F,2026-06-09T12:00:02.998944,15.82020447,.0001163,53.1596,282.1454,89.2618,85.4240,0,U,69243,999,293,-.1552E-3,-.32895E-3,0
STARLINK-37757,2026-117G,2026-06-09T12:00:02.998944,15.82016360,.0000653,53.1594,282.1176,103.1156,85.2237,0,U,69244,999,293,-.17446E-3,-.36863E-3,0
STARLINK-37767,2026-117H,2026-06-09T12:00:02.998944,15.82015930,.0000992,53.1614,282.0667,93.1412,119.4870,0,U,69245,999,293,-.12951E-3,-.27578E-3,0
STARLINK-35759,2026-117J,2026-06-09T12:00:02.998944,15.82021686,.0000755,53.1590,282.0589,99.9595,116.5825,0,U,69246,999,298,-.11987E-3,-.2559E-3,0
STARLINK-37238,2026-117K,2026-06-09T12:00:02.998944,15.81975520,.0001139,53.1586,282.0057,84.1119,157.7470,0,U,69247,999,293,.29096E-3,.60148E-3,0
STARLINK-37412,2026-117L,2026-06-09T12:00:02.998944,15.81993601,.0001184,53.1581,281.9662,84.0858,176.9876,0,U,69248,999,300,-.10895E-3,-.23301E-3,0
STARLINK-37398,2026-117M,2026-06-09T12:00:02.998944,15.83324878,.0000584,53.1576,281.9585,73.9110,190.7460,0,U,69249,999,300,-.88473E-2,-.1698272E-1,0
STARLINK-37499,2026-117N,2026-06-09T12:00:02.998944,15.81979765,.0001111,53.1581,281.9454,75.5140,195.3576,0,U,69250,999,300,.33192E-4,.6189E-4,0
STARLINK-37489,2026-117P,2026-06-09T12:00:02.998944,15.81975720,.0000461,53.1581,281.9247,122.6904,158.2103,0,U,69251,999,300,.93334E-4,.18719E-3,0
STARLINK-37434,2026-117Q,2026-06-09T12:00:02.998944,15.82487302,.0001285,53.1575,281.8900,77.7211,219.8458,0,U,69252,999,293,-.3751E-2,-.73473E-2,0
STARLINK-37368,2026-117R,2026-06-09T12:00:02.998944,15.84634436,.0000733,53.1564,281.8161,64.1170,269.1453,0,U,69253,999,300,-.8921E-2,-.1846097E-1,0
STARLINK-37517,2026-117S,2026-06-09T12:00:02.998944,15.84957117,.0000521,53.1566,281.8019,83.8451,256.3389,0,U,69254,999,300,-.97344E-2,-.2018622E-1,0
STARLINK-37378,2026-117T,2026-06-09T12:00:02.998944,15.84638140,.0000579,53.1566,281.7964,64.8006,277.9065,0,U,69255,999,292,-.91348E-2,-.188488E-1,0
STARLINK-37396,2026-117U,2026-06-09T12:00:02.998944,15.85072869,.0000776,53.1564,281.7681,75.1518,280.7231,0,U,69256,999,300,-.1002E-1,-.2079717E-1,0
STARLINK-37508,2026-117V,2026-06-09T12:00:02.998944,15.84974437,.0001005,53.1559,281.7492,83.8357,280.9698,0,U,69257,999,292,-.34065E-2,-.750173E-2,0
STARLINK-37276,2026-117W,2026-06-09T12:00:02.998944,15.92952645,.0001083,53.1552,281.5661,56.4876,36.0486,0,U,69258,999,292,-.60694E-2,-.2149296E-1,.12575E-2
